<?xml version="1.0" encoding="UTF-8"?>
<gpx creator="StravaGPX" version="1.1" xmlns="http://www.topografix.com/GPX/1/1" xmlns:xsi="http://www.w3.org/2001/XMLSchema-instance" xsi:schemaLocation="http://www.topografix.com/GPX/1/1 http://www.topografix.com/GPX/1/1/gpx.xsd">
 <metadata>
  <name>fantoft ultra v1</name>
  <author>
   <name>Niels Reuvekamp</name>
   <link href="https://www.strava.com/athletes/73526473"/>
  </author>
  <copyright author="OpenStreetMap contributors">
   <year>2020</year>
   <license>https://www.openstreetmap.org/copyright</license>
  </copyright>
  <link href="https://www.strava.com/routes/3540673134028808536"/>
 </metadata>
 <trk>
  <name>fantoft ultra v1</name>
  <link href="https://www.strava.com/routes/3540673134028808536"/>
  <type>trail_running</type>
  <trkseg>
   <trkpt lat="60.34629" lon="5.353820000000001">
    <ele>64.69000000000001</ele>
   </trkpt>
   <trkpt lat="60.34628000000001" lon="5.354990000000001">
    <ele>65.50999999999999</ele>
   </trkpt>
   <trkpt lat="60.34635000000001" lon="5.355200000000001">
    <ele>66.54</ele>
   </trkpt>
   <trkpt lat="60.34653000000001" lon="5.35531">
    <ele>71.25</ele>
   </trkpt>
   <trkpt lat="60.34691000000001" lon="5.355440000000001">
    <ele>74.89000000000001</ele>
   </trkpt>
   <trkpt lat="60.34729000085104" lon="5.3549450058557">
    <ele>79.11</ele>
   </trkpt>
   <trkpt lat="60.34767000000001" lon="5.354450000000001">
    <ele>84.37</ele>
   </trkpt>
   <trkpt lat="60.34778000000001" lon="5.35444">
    <ele>86.21000000000001</ele>
   </trkpt>
   <trkpt lat="60.34781" lon="5.35449">
    <ele>86.36</ele>
   </trkpt>
   <trkpt lat="60.34787000000001" lon="5.35449">
    <ele>87.09</ele>
   </trkpt>
   <trkpt lat="60.348040000000005" lon="5.35437">
    <ele>88.41</ele>
   </trkpt>
   <trkpt lat="60.34814000000001" lon="5.35433">
    <ele>88.91</ele>
   </trkpt>
   <trkpt lat="60.34823000000001" lon="5.35432">
    <ele>89.54</ele>
   </trkpt>
   <trkpt lat="60.348530000000004" lon="5.354310000000001">
    <ele>91.58000000000001</ele>
   </trkpt>
   <trkpt lat="60.348780000000005" lon="5.35435">
    <ele>94.4</ele>
   </trkpt>
   <trkpt lat="60.349160000000005" lon="5.35451">
    <ele>96.68</ele>
   </trkpt>
   <trkpt lat="60.349320000000006" lon="5.354710000000001">
    <ele>98.13000000000001</ele>
   </trkpt>
   <trkpt lat="60.3494" lon="5.35487">
    <ele>98.93</ele>
   </trkpt>
   <trkpt lat="60.349450000000004" lon="5.35508">
    <ele>99.78</ele>
   </trkpt>
   <trkpt lat="60.34948000000001" lon="5.3553500000000005">
    <ele>101.13000000000001</ele>
   </trkpt>
   <trkpt lat="60.34948000000001" lon="5.3557500000000005">
    <ele>104.0</ele>
   </trkpt>
   <trkpt lat="60.34946000000001" lon="5.355930000000001">
    <ele>104.58</ele>
   </trkpt>
   <trkpt lat="60.34942" lon="5.35613">
    <ele>104.98</ele>
   </trkpt>
   <trkpt lat="60.34930000000001" lon="5.35655">
    <ele>105.34</ele>
   </trkpt>
   <trkpt lat="60.34911" lon="5.35691">
    <ele>105.24000000000001</ele>
   </trkpt>
   <trkpt lat="60.349180000000004" lon="5.35709">
    <ele>104.05</ele>
   </trkpt>
   <trkpt lat="60.3494" lon="5.357410000000001">
    <ele>101.95000000000002</ele>
   </trkpt>
   <trkpt lat="60.3496" lon="5.357530000000001">
    <ele>99.11</ele>
   </trkpt>
   <trkpt lat="60.34985" lon="5.357530000000001">
    <ele>96.47000000000001</ele>
   </trkpt>
   <trkpt lat="60.350150000000006" lon="5.35745">
    <ele>91.33000000000001</ele>
   </trkpt>
   <trkpt lat="60.350500000000004" lon="5.35742">
    <ele>88.82000000000001</ele>
   </trkpt>
   <trkpt lat="60.350860000000004" lon="5.357430000000001">
    <ele>84.84000000000002</ele>
   </trkpt>
   <trkpt lat="60.35137" lon="5.357410000000001">
    <ele>79.47000000000001</ele>
   </trkpt>
   <trkpt lat="60.35173" lon="5.35735">
    <ele>76.61000000000001</ele>
   </trkpt>
   <trkpt lat="60.352000000000004" lon="5.357360000000001">
    <ele>74.34</ele>
   </trkpt>
   <trkpt lat="60.352050000000006" lon="5.3573900000000005">
    <ele>74.08000000000001</ele>
   </trkpt>
   <trkpt lat="60.35215" lon="5.357570000000001">
    <ele>73.47000000000001</ele>
   </trkpt>
   <trkpt lat="60.352320000000006" lon="5.35831">
    <ele>72.85000000000001</ele>
   </trkpt>
   <trkpt lat="60.352320000000006" lon="5.358320000000001">
    <ele>72.86000000000001</ele>
   </trkpt>
   <trkpt lat="60.35228000000001" lon="5.358140000000001">
    <ele>72.77</ele>
   </trkpt>
   <trkpt lat="60.352320000000006" lon="5.3581">
    <ele>72.64000000000001</ele>
   </trkpt>
   <trkpt lat="60.352360000000004" lon="5.358140000000001">
    <ele>72.64000000000001</ele>
   </trkpt>
   <trkpt lat="60.352410000000006" lon="5.35815">
    <ele>72.39000000000001</ele>
   </trkpt>
   <trkpt lat="60.352520000000005" lon="5.35801">
    <ele>71.96000000000001</ele>
   </trkpt>
   <trkpt lat="60.35278" lon="5.3578600000000005">
    <ele>71.31000000000002</ele>
   </trkpt>
   <trkpt lat="60.353010000000005" lon="5.3578">
    <ele>70.61</ele>
   </trkpt>
   <trkpt lat="60.35305" lon="5.3577200000000005">
    <ele>69.98</ele>
   </trkpt>
   <trkpt lat="60.35318" lon="5.357640000000001">
    <ele>70.33</ele>
   </trkpt>
   <trkpt lat="60.353410000000004" lon="5.357710000000001">
    <ele>70.22</ele>
   </trkpt>
   <trkpt lat="60.353440000000006" lon="5.357200000000001">
    <ele>59.95</ele>
   </trkpt>
   <trkpt lat="60.35342000000001" lon="5.35702">
    <ele>58.730000000000004</ele>
   </trkpt>
   <trkpt lat="60.353500000000004" lon="5.35705">
    <ele>57.910000000000004</ele>
   </trkpt>
   <trkpt lat="60.35371000000001" lon="5.356870000000001">
    <ele>55.67</ele>
   </trkpt>
   <trkpt lat="60.353880000000004" lon="5.356870000000001">
    <ele>54.09</ele>
   </trkpt>
   <trkpt lat="60.35401" lon="5.35679">
    <ele>53.22</ele>
   </trkpt>
   <trkpt lat="60.353680000000004" lon="5.35663">
    <ele>52.39000000000001</ele>
   </trkpt>
   <trkpt lat="60.353770000000004" lon="5.3565700000000005">
    <ele>51.95</ele>
   </trkpt>
   <trkpt lat="60.354200000000006" lon="5.35651">
    <ele>51.52</ele>
   </trkpt>
   <trkpt lat="60.35425000000001" lon="5.35646">
    <ele>51.52</ele>
   </trkpt>
   <trkpt lat="60.354420000000005" lon="5.356420000000001">
    <ele>51.60000000000001</ele>
   </trkpt>
   <trkpt lat="60.354710000000004" lon="5.35609">
    <ele>51.95</ele>
   </trkpt>
   <trkpt lat="60.354820000000004" lon="5.35601">
    <ele>51.95</ele>
   </trkpt>
   <trkpt lat="60.35481000000001" lon="5.35602">
    <ele>51.95</ele>
   </trkpt>
   <trkpt lat="60.35504" lon="5.35599">
    <ele>52.04</ele>
   </trkpt>
   <trkpt lat="60.355160000000005" lon="5.35604">
    <ele>51.96000000000001</ele>
   </trkpt>
   <trkpt lat="60.35568000000001" lon="5.356400000000001">
    <ele>51.410000000000004</ele>
   </trkpt>
   <trkpt lat="60.355850000000004" lon="5.3566">
    <ele>51.34</ele>
   </trkpt>
   <trkpt lat="60.35605" lon="5.356920000000001">
    <ele>51.53000000000001</ele>
   </trkpt>
   <trkpt lat="60.35624000000001" lon="5.3571800000000005">
    <ele>51.52</ele>
   </trkpt>
   <trkpt lat="60.35638" lon="5.3573200000000005">
    <ele>51.35000000000001</ele>
   </trkpt>
   <trkpt lat="60.35665" lon="5.3574600000000006">
    <ele>51.59</ele>
   </trkpt>
   <trkpt lat="60.35671000000001" lon="5.357530000000001">
    <ele>51.56</ele>
   </trkpt>
   <trkpt lat="60.35680000000001" lon="5.3577">
    <ele>51.09</ele>
   </trkpt>
   <trkpt lat="60.35687000000001" lon="5.357640000000001">
    <ele>51.09</ele>
   </trkpt>
   <trkpt lat="60.357110000000006" lon="5.35759">
    <ele>50.81</ele>
   </trkpt>
   <trkpt lat="60.357290000000006" lon="5.35742">
    <ele>50.64</ele>
   </trkpt>
   <trkpt lat="60.35739" lon="5.357220000000001">
    <ele>50.79</ele>
   </trkpt>
   <trkpt lat="60.35745000000001" lon="5.356990000000001">
    <ele>50.79</ele>
   </trkpt>
   <trkpt lat="60.3575" lon="5.356540000000001">
    <ele>51.410000000000004</ele>
   </trkpt>
   <trkpt lat="60.35726000531626" lon="5.355344991001663">
    <ele>51.67000000000001</ele>
   </trkpt>
   <trkpt lat="60.357020000000006" lon="5.354150000000001">
    <ele>52.04</ele>
   </trkpt>
   <trkpt lat="60.356750000000005" lon="5.35242">
    <ele>51.99</ele>
   </trkpt>
   <trkpt lat="60.356500000000004" lon="5.3516200000000005">
    <ele>52.68000000000001</ele>
   </trkpt>
   <trkpt lat="60.35638" lon="5.351240000000001">
    <ele>53.050000000000004</ele>
   </trkpt>
   <trkpt lat="60.35607" lon="5.35066">
    <ele>52.800000000000004</ele>
   </trkpt>
   <trkpt lat="60.35591" lon="5.350490000000001">
    <ele>51.85000000000001</ele>
   </trkpt>
   <trkpt lat="60.355810000000005" lon="5.35043">
    <ele>51.440000000000005</ele>
   </trkpt>
   <trkpt lat="60.355230000000006" lon="5.35017">
    <ele>52.28000000000001</ele>
   </trkpt>
   <trkpt lat="60.35511" lon="5.349970000000001">
    <ele>52.28000000000001</ele>
   </trkpt>
   <trkpt lat="60.35486" lon="5.349640000000001">
    <ele>51.760000000000005</ele>
   </trkpt>
   <trkpt lat="60.354670000000006" lon="5.349480000000001">
    <ele>51.77</ele>
   </trkpt>
   <trkpt lat="60.354440000000004" lon="5.34937">
    <ele>51.980000000000004</ele>
   </trkpt>
   <trkpt lat="60.35445000000001" lon="5.34937">
    <ele>51.980000000000004</ele>
   </trkpt>
   <trkpt lat="60.35432000000001" lon="5.349760000000001">
    <ele>51.07</ele>
   </trkpt>
   <trkpt lat="60.35445000000001" lon="5.34937">
    <ele>51.980000000000004</ele>
   </trkpt>
   <trkpt lat="60.354150000000004" lon="5.349270000000001">
    <ele>52.550000000000004</ele>
   </trkpt>
   <trkpt lat="60.35385000000001" lon="5.34921">
    <ele>52.76</ele>
   </trkpt>
   <trkpt lat="60.353370000000005" lon="5.34926">
    <ele>53.120000000000005</ele>
   </trkpt>
   <trkpt lat="60.353190000000005" lon="5.34924">
    <ele>53.43000000000001</ele>
   </trkpt>
   <trkpt lat="60.35309" lon="5.349150000000001">
    <ele>53.46000000000001</ele>
   </trkpt>
   <trkpt lat="60.352900000000005" lon="5.34912">
    <ele>53.410000000000004</ele>
   </trkpt>
   <trkpt lat="60.35255000000001" lon="5.34902">
    <ele>53.4</ele>
   </trkpt>
   <trkpt lat="60.352060000134585" lon="5.348959999113317">
    <ele>53.230000000000004</ele>
   </trkpt>
   <trkpt lat="60.35157" lon="5.3489">
    <ele>52.76</ele>
   </trkpt>
   <trkpt lat="60.35134000000001" lon="5.348940000000001">
    <ele>52.79</ele>
   </trkpt>
   <trkpt lat="60.3511" lon="5.349060000000001">
    <ele>52.81</ele>
   </trkpt>
   <trkpt lat="60.35099" lon="5.34914">
    <ele>52.88</ele>
   </trkpt>
   <trkpt lat="60.35071000000001" lon="5.34942">
    <ele>53.22</ele>
   </trkpt>
   <trkpt lat="60.350660000000005" lon="5.3491800000000005">
    <ele>53.36000000000001</ele>
   </trkpt>
   <trkpt lat="60.350550000000005" lon="5.34926">
    <ele>53.44</ele>
   </trkpt>
   <trkpt lat="60.35052" lon="5.348470000000001">
    <ele>54.45</ele>
   </trkpt>
   <trkpt lat="60.35034" lon="5.3486400000000005">
    <ele>54.28</ele>
   </trkpt>
   <trkpt lat="60.35042000000001" lon="5.348400000000001">
    <ele>54.45</ele>
   </trkpt>
   <trkpt lat="60.35045" lon="5.34797">
    <ele>54.78</ele>
   </trkpt>
   <trkpt lat="60.350410000000004" lon="5.346430000000001">
    <ele>58.32</ele>
   </trkpt>
   <trkpt lat="60.35036" lon="5.3463400000000005">
    <ele>58.52</ele>
   </trkpt>
   <trkpt lat="60.350280000000005" lon="5.34625">
    <ele>58.7</ele>
   </trkpt>
   <trkpt lat="60.35020000000001" lon="5.346220000000001">
    <ele>58.72</ele>
   </trkpt>
   <trkpt lat="60.35004000000001" lon="5.3463400000000005">
    <ele>57.470000000000006</ele>
   </trkpt>
   <trkpt lat="60.34993000000001" lon="5.34637">
    <ele>57.11000000000001</ele>
   </trkpt>
   <trkpt lat="60.34991000000001" lon="5.346360000000001">
    <ele>57.11000000000001</ele>
   </trkpt>
   <trkpt lat="60.349900000000005" lon="5.346360000000001">
    <ele>57.11000000000001</ele>
   </trkpt>
   <trkpt lat="60.34964000000001" lon="5.34626">
    <ele>57.20000000000001</ele>
   </trkpt>
   <trkpt lat="60.34937000000001" lon="5.346220000000001">
    <ele>58.39</ele>
   </trkpt>
   <trkpt lat="60.34929" lon="5.34626">
    <ele>59.56</ele>
   </trkpt>
   <trkpt lat="60.349140000000006" lon="5.34637">
    <ele>60.36</ele>
   </trkpt>
   <trkpt lat="60.34897000000001" lon="5.3464">
    <ele>60.440000000000005</ele>
   </trkpt>
   <trkpt lat="60.348580000000005" lon="5.34642">
    <ele>57.31</ele>
   </trkpt>
   <trkpt lat="60.34827000000001" lon="5.3464">
    <ele>55.400000000000006</ele>
   </trkpt>
   <trkpt lat="60.34789000000001" lon="5.346430000000001">
    <ele>54.35</ele>
   </trkpt>
   <trkpt lat="60.347840000000005" lon="5.3462700000000005">
    <ele>55.080000000000005</ele>
   </trkpt>
   <trkpt lat="60.347750000000005" lon="5.34611">
    <ele>56.75</ele>
   </trkpt>
   <trkpt lat="60.34758000000001" lon="5.345960000000001">
    <ele>57.690000000000005</ele>
   </trkpt>
   <trkpt lat="60.34749000000001" lon="5.345840000000001">
    <ele>58.080000000000005</ele>
   </trkpt>
   <trkpt lat="60.347480000000004" lon="5.34583">
    <ele>58.080000000000005</ele>
   </trkpt>
   <trkpt lat="60.347460000000005" lon="5.3458000000000006">
    <ele>58.080000000000005</ele>
   </trkpt>
   <trkpt lat="60.347370000000005" lon="5.345470000000001">
    <ele>58.13000000000001</ele>
   </trkpt>
   <trkpt lat="60.347280000000005" lon="5.345300000000001">
    <ele>58.21</ele>
   </trkpt>
   <trkpt lat="60.34693000000001" lon="5.345140000000001">
    <ele>58.38</ele>
   </trkpt>
   <trkpt lat="60.34671" lon="5.34497">
    <ele>58.46</ele>
   </trkpt>
   <trkpt lat="60.34653000000001" lon="5.344950000000001">
    <ele>59.760000000000005</ele>
   </trkpt>
   <trkpt lat="60.34649" lon="5.3449100000000005">
    <ele>59.760000000000005</ele>
   </trkpt>
   <trkpt lat="60.34646000000001" lon="5.3448400000000005">
    <ele>59.97</ele>
   </trkpt>
   <trkpt lat="60.346450000000004" lon="5.34473">
    <ele>60.14000000000001</ele>
   </trkpt>
   <trkpt lat="60.346470000000004" lon="5.344390000000001">
    <ele>60.54</ele>
   </trkpt>
   <trkpt lat="60.34635000000001" lon="5.34436">
    <ele>61.89000000000001</ele>
   </trkpt>
   <trkpt lat="60.34628000000001" lon="5.34436">
    <ele>62.400000000000006</ele>
   </trkpt>
   <trkpt lat="60.34619000000001" lon="5.34442">
    <ele>63.480000000000004</ele>
   </trkpt>
   <trkpt lat="60.346050000000005" lon="5.34461">
    <ele>66.29</ele>
   </trkpt>
   <trkpt lat="60.346090000000004" lon="5.34513">
    <ele>66.21000000000001</ele>
   </trkpt>
   <trkpt lat="60.346070000000005" lon="5.345370000000001">
    <ele>65.87</ele>
   </trkpt>
   <trkpt lat="60.34601000000001" lon="5.345610000000001">
    <ele>65.39</ele>
   </trkpt>
   <trkpt lat="60.34597000000001" lon="5.345560000000001">
    <ele>65.39</ele>
   </trkpt>
   <trkpt lat="60.34579000000001" lon="5.3459200000000004">
    <ele>65.01</ele>
   </trkpt>
   <trkpt lat="60.34559" lon="5.34609">
    <ele>67.63000000000001</ele>
   </trkpt>
   <trkpt lat="60.345180000000006" lon="5.34661">
    <ele>69.72</ele>
   </trkpt>
   <trkpt lat="60.34512" lon="5.34661">
    <ele>70.01</ele>
   </trkpt>
   <trkpt lat="60.34508" lon="5.34651">
    <ele>70.22</ele>
   </trkpt>
   <trkpt lat="60.345040000000004" lon="5.346570000000001">
    <ele>70.27</ele>
   </trkpt>
   <trkpt lat="60.34519" lon="5.34701">
    <ele>68.15</ele>
   </trkpt>
   <trkpt lat="60.3453" lon="5.34747">
    <ele>66.72</ele>
   </trkpt>
   <trkpt lat="60.345240000000004" lon="5.347530000000001">
    <ele>66.27000000000001</ele>
   </trkpt>
   <trkpt lat="60.344590000000004" lon="5.3482">
    <ele>73.00000000000001</ele>
   </trkpt>
   <trkpt lat="60.34447000000001" lon="5.348260000000001">
    <ele>77.12</ele>
   </trkpt>
   <trkpt lat="60.344370000000005" lon="5.34825">
    <ele>77.12</ele>
   </trkpt>
   <trkpt lat="60.34429000000001" lon="5.3482">
    <ele>77.12</ele>
   </trkpt>
   <trkpt lat="60.34418" lon="5.34802">
    <ele>79.5</ele>
   </trkpt>
   <trkpt lat="60.34393000000001" lon="5.3475">
    <ele>81.09</ele>
   </trkpt>
   <trkpt lat="60.343720000000005" lon="5.34717">
    <ele>81.37</ele>
   </trkpt>
   <trkpt lat="60.34355000000001" lon="5.347">
    <ele>81.14999999999999</ele>
   </trkpt>
   <trkpt lat="60.343560000000004" lon="5.347">
    <ele>81.16000000000001</ele>
   </trkpt>
   <trkpt lat="60.34353000000001" lon="5.3473500000000005">
    <ele>80.61</ele>
   </trkpt>
   <trkpt lat="60.34348000000001" lon="5.34754">
    <ele>80.37</ele>
   </trkpt>
   <trkpt lat="60.34344000000001" lon="5.347600000000001">
    <ele>80.37</ele>
   </trkpt>
   <trkpt lat="60.343320000000006" lon="5.347700000000001">
    <ele>79.99000000000001</ele>
   </trkpt>
   <trkpt lat="60.34324" lon="5.347790000000001">
    <ele>79.83000000000001</ele>
   </trkpt>
   <trkpt lat="60.343030000000006" lon="5.34825">
    <ele>80.15</ele>
   </trkpt>
   <trkpt lat="60.34286" lon="5.34869">
    <ele>82.32000000000001</ele>
   </trkpt>
   <trkpt lat="60.34282" lon="5.34872">
    <ele>82.32000000000001</ele>
   </trkpt>
   <trkpt lat="60.342760000000006" lon="5.3487">
    <ele>82.32000000000001</ele>
   </trkpt>
   <trkpt lat="60.342650000000006" lon="5.348610000000001">
    <ele>83.48</ele>
   </trkpt>
   <trkpt lat="60.34261000000001" lon="5.3486">
    <ele>84.0</ele>
   </trkpt>
   <trkpt lat="60.34257" lon="5.34863">
    <ele>84.21000000000001</ele>
   </trkpt>
   <trkpt lat="60.342510000000004" lon="5.34881">
    <ele>84.45</ele>
   </trkpt>
   <trkpt lat="60.34250000000001" lon="5.34881">
    <ele>84.45</ele>
   </trkpt>
   <trkpt lat="60.342510000000004" lon="5.34881">
    <ele>84.55</ele>
   </trkpt>
   <trkpt lat="60.34263000000001" lon="5.3493900000000005">
    <ele>85.11</ele>
   </trkpt>
   <trkpt lat="60.34263000000001" lon="5.349600000000001">
    <ele>85.19</ele>
   </trkpt>
   <trkpt lat="60.342510000000004" lon="5.35031">
    <ele>85.36</ele>
   </trkpt>
   <trkpt lat="60.342490000000005" lon="5.35013">
    <ele>83.86</ele>
   </trkpt>
   <trkpt lat="60.34243000000001" lon="5.349950000000001">
    <ele>81.78</ele>
   </trkpt>
   <trkpt lat="60.342360000000006" lon="5.34992">
    <ele>81.18</ele>
   </trkpt>
   <trkpt lat="60.342290000000006" lon="5.34992">
    <ele>79.42999999999999</ele>
   </trkpt>
   <trkpt lat="60.342110000000005" lon="5.34999">
    <ele>78.81</ele>
   </trkpt>
   <trkpt lat="60.342040000000004" lon="5.35005">
    <ele>75.4</ele>
   </trkpt>
   <trkpt lat="60.341770000000004" lon="5.35045">
    <ele>71.81000000000002</ele>
   </trkpt>
   <trkpt lat="60.34172" lon="5.3504700000000005">
    <ele>71.81000000000002</ele>
   </trkpt>
   <trkpt lat="60.34152" lon="5.3504700000000005">
    <ele>69.97</ele>
   </trkpt>
   <trkpt lat="60.34138000000001" lon="5.35041">
    <ele>69.05</ele>
   </trkpt>
   <trkpt lat="60.34118000000001" lon="5.35036">
    <ele>67.81</ele>
   </trkpt>
   <trkpt lat="60.34076" lon="5.350370000000001">
    <ele>66.78</ele>
   </trkpt>
   <trkpt lat="60.34058" lon="5.35034">
    <ele>66.78</ele>
   </trkpt>
   <trkpt lat="60.34022" lon="5.35022">
    <ele>67.49000000000001</ele>
   </trkpt>
   <trkpt lat="60.340210000000006" lon="5.35022">
    <ele>67.51</ele>
   </trkpt>
   <trkpt lat="60.340070000000004" lon="5.3502">
    <ele>67.86</ele>
   </trkpt>
   <trkpt lat="60.33999000000001" lon="5.350210000000001">
    <ele>67.86</ele>
   </trkpt>
   <trkpt lat="60.33975" lon="5.350350000000001">
    <ele>68.47</ele>
   </trkpt>
   <trkpt lat="60.339650000000006" lon="5.3504700000000005">
    <ele>68.65</ele>
   </trkpt>
   <trkpt lat="60.339020000000005" lon="5.35139">
    <ele>66.56</ele>
   </trkpt>
   <trkpt lat="60.338770000000004" lon="5.3518300000000005">
    <ele>65.7</ele>
   </trkpt>
   <trkpt lat="60.33872" lon="5.35188">
    <ele>65.56</ele>
   </trkpt>
   <trkpt lat="60.33843" lon="5.35224">
    <ele>63.73000000000001</ele>
   </trkpt>
   <trkpt lat="60.33840000000001" lon="5.35233">
    <ele>63.73000000000001</ele>
   </trkpt>
   <trkpt lat="60.33878000000001" lon="5.352320000000001">
    <ele>73.75000000000001</ele>
   </trkpt>
   <trkpt lat="60.338840000000005" lon="5.35236">
    <ele>73.75000000000001</ele>
   </trkpt>
   <trkpt lat="60.33887000000001" lon="5.352480000000001">
    <ele>76.1</ele>
   </trkpt>
   <trkpt lat="60.33887000000001" lon="5.35273">
    <ele>77.83000000000001</ele>
   </trkpt>
   <trkpt lat="60.338800000000006" lon="5.352790000000001">
    <ele>79.42</ele>
   </trkpt>
   <trkpt lat="60.33867000000001" lon="5.35285">
    <ele>80.56</ele>
   </trkpt>
   <trkpt lat="60.33865000000001" lon="5.352950000000001">
    <ele>82.01</ele>
   </trkpt>
   <trkpt lat="60.33872" lon="5.35315">
    <ele>83.61</ele>
   </trkpt>
   <trkpt lat="60.338800000000006" lon="5.35313">
    <ele>84.98000000000002</ele>
   </trkpt>
   <trkpt lat="60.33887000000001" lon="5.353190000000001">
    <ele>85.85000000000001</ele>
   </trkpt>
   <trkpt lat="60.33885000000001" lon="5.35341">
    <ele>86.87</ele>
   </trkpt>
   <trkpt lat="60.338910000000006" lon="5.353470000000001">
    <ele>86.87</ele>
   </trkpt>
   <trkpt lat="60.339330000000004" lon="5.35353">
    <ele>96.2</ele>
   </trkpt>
   <trkpt lat="60.33934000000001" lon="5.35353">
    <ele>96.2</ele>
   </trkpt>
   <trkpt lat="60.33941000000001" lon="5.3535200000000005">
    <ele>97.15</ele>
   </trkpt>
   <trkpt lat="60.33948" lon="5.353440000000001">
    <ele>97.15</ele>
   </trkpt>
   <trkpt lat="60.339510000000004" lon="5.353350000000001">
    <ele>97.75</ele>
   </trkpt>
   <trkpt lat="60.33943000000001" lon="5.35311">
    <ele>95.84</ele>
   </trkpt>
   <trkpt lat="60.339310000000005" lon="5.352880000000001">
    <ele>92.99</ele>
   </trkpt>
   <trkpt lat="60.33916000000001" lon="5.3527000000000005">
    <ele>92.30000000000001</ele>
   </trkpt>
   <trkpt lat="60.3391" lon="5.352250000000001">
    <ele>85.12</ele>
   </trkpt>
   <trkpt lat="60.33914000000001" lon="5.352010000000001">
    <ele>85.20000000000002</ele>
   </trkpt>
   <trkpt lat="60.339180000000006" lon="5.351920000000001">
    <ele>85.36</ele>
   </trkpt>
   <trkpt lat="60.33921000000001" lon="5.35189">
    <ele>85.36</ele>
   </trkpt>
   <trkpt lat="60.33932000000001" lon="5.35189">
    <ele>85.62</ele>
   </trkpt>
   <trkpt lat="60.33952000000001" lon="5.35172">
    <ele>86.96000000000001</ele>
   </trkpt>
   <trkpt lat="60.339690000000004" lon="5.3515500000000005">
    <ele>89.45</ele>
   </trkpt>
   <trkpt lat="60.33995" lon="5.35144">
    <ele>90.64000000000001</ele>
   </trkpt>
   <trkpt lat="60.340120000000006" lon="5.3512900000000005">
    <ele>90.50000000000001</ele>
   </trkpt>
   <trkpt lat="60.34037000000001" lon="5.35116">
    <ele>90.25000000000001</ele>
   </trkpt>
   <trkpt lat="60.34047" lon="5.35114">
    <ele>89.72000000000001</ele>
   </trkpt>
   <trkpt lat="60.34057000000001" lon="5.351190000000001">
    <ele>88.68</ele>
   </trkpt>
   <trkpt lat="60.340630000000004" lon="5.351190000000001">
    <ele>88.68</ele>
   </trkpt>
   <trkpt lat="60.34071" lon="5.3512200000000005">
    <ele>87.54</ele>
   </trkpt>
   <trkpt lat="60.340770000000006" lon="5.35127">
    <ele>87.20000000000002</ele>
   </trkpt>
   <trkpt lat="60.340900000000005" lon="5.35127">
    <ele>86.45000000000002</ele>
   </trkpt>
   <trkpt lat="60.34096" lon="5.351240000000001">
    <ele>86.22</ele>
   </trkpt>
   <trkpt lat="60.341210000000004" lon="5.35099">
    <ele>86.05</ele>
   </trkpt>
   <trkpt lat="60.34132" lon="5.350960000000001">
    <ele>86.15</ele>
   </trkpt>
   <trkpt lat="60.34138000000001" lon="5.350980000000001">
    <ele>86.34000000000002</ele>
   </trkpt>
   <trkpt lat="60.341640000000005" lon="5.35118">
    <ele>89.15</ele>
   </trkpt>
   <trkpt lat="60.34161" lon="5.35116">
    <ele>88.83</ele>
   </trkpt>
   <trkpt lat="60.341730000000005" lon="5.35125">
    <ele>90.47000000000001</ele>
   </trkpt>
   <trkpt lat="60.341770000000004" lon="5.351260000000001">
    <ele>90.9</ele>
   </trkpt>
   <trkpt lat="60.34185000000001" lon="5.35121">
    <ele>91.19000000000001</ele>
   </trkpt>
   <trkpt lat="60.34201" lon="5.350980000000001">
    <ele>92.57000000000001</ele>
   </trkpt>
   <trkpt lat="60.34198000000001" lon="5.35127">
    <ele>94.76</ele>
   </trkpt>
   <trkpt lat="60.34198000000001" lon="5.3514800000000005">
    <ele>96.19000000000001</ele>
   </trkpt>
   <trkpt lat="60.342000000000006" lon="5.35167">
    <ele>96.33000000000001</ele>
   </trkpt>
   <trkpt lat="60.34185000000001" lon="5.351920000000001">
    <ele>98.11</ele>
   </trkpt>
   <trkpt lat="60.34169000000001" lon="5.35203">
    <ele>98.67</ele>
   </trkpt>
   <trkpt lat="60.341210000000004" lon="5.3521600000000005">
    <ele>98.52000000000001</ele>
   </trkpt>
   <trkpt lat="60.340970000000006" lon="5.3521600000000005">
    <ele>97.67</ele>
   </trkpt>
   <trkpt lat="60.34087" lon="5.35221">
    <ele>97.61</ele>
   </trkpt>
   <trkpt lat="60.34055000000001" lon="5.35252">
    <ele>97.41000000000001</ele>
   </trkpt>
   <trkpt lat="60.340500000000006" lon="5.352580000000001">
    <ele>97.4</ele>
   </trkpt>
   <trkpt lat="60.34051" lon="5.35256">
    <ele>97.4</ele>
   </trkpt>
   <trkpt lat="60.340180000000004" lon="5.35301">
    <ele>99.28</ele>
   </trkpt>
   <trkpt lat="60.34011" lon="5.353190000000001">
    <ele>99.93</ele>
   </trkpt>
   <trkpt lat="60.340090000000004" lon="5.3536">
    <ele>102.70000000000002</ele>
   </trkpt>
   <trkpt lat="60.340250000000005" lon="5.353630000000001">
    <ele>101.05000000000001</ele>
   </trkpt>
   <trkpt lat="60.340450000000004" lon="5.35357">
    <ele>100.81</ele>
   </trkpt>
   <trkpt lat="60.34069" lon="5.353700000000001">
    <ele>99.49000000000001</ele>
   </trkpt>
   <trkpt lat="60.340810000000005" lon="5.35371">
    <ele>99.16000000000001</ele>
   </trkpt>
   <trkpt lat="60.34089" lon="5.35364">
    <ele>99.2</ele>
   </trkpt>
   <trkpt lat="60.34113000000001" lon="5.353700000000001">
    <ele>99.27000000000001</ele>
   </trkpt>
   <trkpt lat="60.34120000000001" lon="5.35378">
    <ele>98.85000000000001</ele>
   </trkpt>
   <trkpt lat="60.34132" lon="5.353840000000001">
    <ele>98.61</ele>
   </trkpt>
   <trkpt lat="60.34120000000001" lon="5.35378">
    <ele>98.85000000000001</ele>
   </trkpt>
   <trkpt lat="60.341330000000006" lon="5.353700000000001">
    <ele>100.31</ele>
   </trkpt>
   <trkpt lat="60.34169000000001" lon="5.353190000000001">
    <ele>104.34</ele>
   </trkpt>
   <trkpt lat="60.341800000000006" lon="5.3529800000000005">
    <ele>103.13000000000001</ele>
   </trkpt>
   <trkpt lat="60.34194000000001" lon="5.35278">
    <ele>100.81</ele>
   </trkpt>
   <trkpt lat="60.34228" lon="5.352790000000001">
    <ele>97.88000000000001</ele>
   </trkpt>
   <trkpt lat="60.342400000000005" lon="5.3527700000000005">
    <ele>97.18</ele>
   </trkpt>
   <trkpt lat="60.342470000000006" lon="5.352620000000001">
    <ele>96.57000000000001</ele>
   </trkpt>
   <trkpt lat="60.342560000000006" lon="5.35271">
    <ele>96.57000000000001</ele>
   </trkpt>
   <trkpt lat="60.34263000000001" lon="5.3525100000000005">
    <ele>95.87</ele>
   </trkpt>
   <trkpt lat="60.342670000000005" lon="5.3524400000000005">
    <ele>95.87</ele>
   </trkpt>
   <trkpt lat="60.34311" lon="5.352060000000001">
    <ele>93.28</ele>
   </trkpt>
   <trkpt lat="60.343230000000005" lon="5.35235">
    <ele>91.57000000000001</ele>
   </trkpt>
   <trkpt lat="60.3434" lon="5.352620000000001">
    <ele>88.26</ele>
   </trkpt>
   <trkpt lat="60.343500000000006" lon="5.352690000000001">
    <ele>88.26</ele>
   </trkpt>
   <trkpt lat="60.34364000000001" lon="5.35273">
    <ele>82.51</ele>
   </trkpt>
   <trkpt lat="60.343790000000006" lon="5.35271">
    <ele>82.51</ele>
   </trkpt>
   <trkpt lat="60.34449000000001" lon="5.35238">
    <ele>76.9</ele>
   </trkpt>
   <trkpt lat="60.344550000000005" lon="5.35231">
    <ele>76.82</ele>
   </trkpt>
   <trkpt lat="60.34499" lon="5.351710000000001">
    <ele>72.06</ele>
   </trkpt>
   <trkpt lat="60.34537" lon="5.3514100000000004">
    <ele>69.05</ele>
   </trkpt>
   <trkpt lat="60.34557" lon="5.351380000000001">
    <ele>67.68</ele>
   </trkpt>
   <trkpt lat="60.34601000000001" lon="5.35139">
    <ele>66.25</ele>
   </trkpt>
   <trkpt lat="60.34601000000001" lon="5.351470000000001">
    <ele>66.56</ele>
   </trkpt>
   <trkpt lat="60.34617000000001" lon="5.35142">
    <ele>66.46000000000001</ele>
   </trkpt>
   <trkpt lat="60.346250000000005" lon="5.3513">
    <ele>66.28</ele>
   </trkpt>
   <trkpt lat="60.34631" lon="5.351450000000001">
    <ele>66.54</ele>
   </trkpt>
   <trkpt lat="60.34639000000001" lon="5.35149">
    <ele>66.61</ele>
   </trkpt>
   <trkpt lat="60.34639000000001" lon="5.351610000000001">
    <ele>66.9</ele>
   </trkpt>
   <trkpt lat="60.346360000000004" lon="5.351610000000001">
    <ele>66.9</ele>
   </trkpt>
   <trkpt lat="60.34635000000001" lon="5.35264">
    <ele>67.21000000000001</ele>
   </trkpt>
   <trkpt lat="60.34628000000001" lon="5.35264">
    <ele>67.23</ele>
   </trkpt>
   <trkpt lat="60.34629" lon="5.35381">
    <ele>64.69000000000001</ele>
   </trkpt>
  </trkseg>
 </trk>
</gpx>
